[{"OBJECT_NAME":"STARLINK-3305","OBJECT_ID":"2021-125L","EPOCH":"2026-03-09T16:58:35.739840","MEAN_MOTION":15.08841386,"ECCENTRICITY":0.00010979,"INCLINATION":53.2167,"RA_OF_ASC_NODE":248.9744,"ARG_OF_PERICENTER":91.567,"MEAN_ANOMALY":268.5448,"EPHEMERIS_TYPE":0,"CLASSIFICATION_TYPE":"U","NORAD_CAT_ID":50166,"ELEMENT_SET_NO":999,"REV_AT_EPOCH":23659,"BSTAR":-0.00018218027,"MEAN_MOTION_DOT":-3.186e-5,"MEAN_MOTION_DDOT":0},{"OBJECT_NAME":"UNISAT-5","OBJECT_ID":"2013-066F","EPOCH":"2026-03-09T22:02:55.134816","MEAN_MOTION":15.04155626,"ECCENTRICITY":0.00317175,"INCLINATION":97.6976,"RA_OF_ASC_NODE":39.5171,"ARG_OF_PERICENTER":68.1555,"MEAN_ANOMALY":292.3039,"EPHEMERIS_TYPE":0,"CLASSIFICATION_TYPE":"U","NORAD_CAT_ID":39421,"ELEMENT_SET_NO":999,"REV_AT_EPOCH":66774,"BSTAR":0.0004680489,"MEAN_MOTION_DOT":6.504e-5,"MEAN_MOTION_DDOT":0}]
